STARLINK-2504           
1 48328U 21036BE  25149.39232494  .00001477  00000+0  11805-3 0  9990
2 48328  53.0558 297.8842 0001616  88.3098 271.8076 15.06394282225182
STARLINK-2510           
1 48329U 21036BF  25150.51653527  .00001179  00000+0  98039-4 0  9995
2 48329  53.0562 292.8341 0001229 100.9081 259.2046 15.06400989225943
STARLINK-2501           
1 48330U 21036BG  25150.57920162  .00000261  00000+0  36392-4 0  9990
2 48330  53.0541 292.5479 0001226  81.8672 278.2456 15.06401054225952
STARLINK-2514           
1 48331U 21036BH  25149.71301287 -.00000266  00000+0  10507-5 0  9993
2 48331  53.0570 296.4475 0001435 107.0031 253.1115 15.06386298225233
STARLINK-2511           
1 48332U 21036BJ  25150.37553054 -.00000223  00000+0  39483-5 0  9996
2 48332  53.0562 293.4667 0001745 100.3197 259.7989 15.06402550225925
STARLINK-2518           
1 48333U 21036BK  25150.56813686 -.00000429  00000+0 -99184-5 0  9991
2 48333  53.0552 292.6004 0001165  89.5921 270.5201 15.06400599225952
STARLINK-2470           
1 48334U 21036BL  25150.56444572  .00000882  00000+0  78040-4 0  9994
2 48334  53.0545 292.6119 0001065  94.7883 265.3228 15.06411652225959
STARLINK-2613           
1 48353U 21038A   25150.43360261  .00002516  00000+0  18771-3 0  9995
2 48353  53.0520 193.1974 0001917  33.1984 326.9125 15.06405171224927
STARLINK-2674           
1 48354U 21038B   25150.42993275  .00000909  00000+0  79920-4 0  9990
2 48354  53.0538 193.2176 0001421  86.0972 274.0180 15.06397572224925
STARLINK-2635           
1 48355U 21038C   25150.42622711  .00000878  00000+0  77813-4 0  9999
2 48355  53.0545 193.2345 0001207  78.5337 281.5787 15.06404262224926
STARLINK-2637           
1 48356U 21038D   25150.42254972  .00000383  00000+0  44630-4 0  9992
2 48356  53.0557 193.2533 0001119  89.0862 271.0255 15.06394756224921
STARLINK-2636           
1 48357U 21038E   25150.39312052 -.00003681  00000+0 -22843-3 0  9990
2 48357  53.0533 193.8090 0001001  64.0720 296.0372 15.06384227224914
STARLINK-2624           
1 48358U 21038F   25150.41517011  .00001242  00000+0  10224-3 0  9995
2 48358  53.0539 193.2851 0000910  65.9918 294.1166 15.06402928224916
STARLINK-2628           
1 48359U 21038G   25150.14609378 -.00001577  00000+0 -87005-4 0  9999
2 48359  53.0528 194.4928 0001219  84.7208 275.3920 15.06409727225528
STARLINK-2622           
1 48360U 21038H   25150.40779412  .00000068  00000+0  23422-4 0  9992
2 48360  53.0545 193.3207 0000971  88.6417 271.4683 15.06403514224919
STARLINK-2591           
1 48361U 21038J   25150.40411513  .00000232  00000+0  34449-4 0  9992
2 48361  53.0550 193.3378 0001075  89.1074 271.0038 15.06399697224912
STARLINK-2578           
1 48362U 21038K   25150.43731072 -.00000727  00000+0 -29961-4 0  9995
2 48362  53.0543 193.2736 0000742  79.1872 280.9200 15.06388559224923
STARLINK-2626           
1 48363U 21038L   25150.25001157  .00134475  00000+0  40075-2 0  9993
2 48363  53.0598 165.3735 0001152  67.2084 252.6409 15.33703198225290
STARLINK-2611           
1 48364U 21038M   25150.39169612  .00001476  00000+0  11799-3 0  9996
2 48364  53.0540 188.5581 0001277  90.8420 269.2715 15.06397907224984
STARLINK-2608           
1 48365U 21038N   25150.42116943  .00003415  00000+0  24805-3 0  9997
2 48365  53.0536 188.2601 0001186  85.9641 274.1484 15.06395437224994
STARLINK-2631           
1 48366U 21038P   25150.58335648  .01240671  00000+0  61319-1 0  9997
2 48366  53.0518 182.3400 0001395  79.8983 246.9979 15.14709509225085
STARLINK-2643           
1 48367U 21038Q   25150.47138982  .00000642  00000+0  61980-4 0  9996
2 48367  53.0542 183.0336 0001150  85.4184 274.6937 15.06392715225062
STARLINK-2623           
1 48368U 21038R   25150.11756794 -.00001962  00000+0 -11284-3 0  9994
2 48368  53.0531 184.9068 0001123  87.2842 272.8275 15.06398641225018
STARLINK-2621           
1 48370U 21038T   25150.06593529  .00000537  00000+0  54986-4 0  9998
2 48370  53.0534 184.8528 0001413  95.7640 264.3510 15.06391332225003
STARLINK-2589           
1 48371U 21038U   25150.06223261  .00001452  00000+0  11635-3 0  9992
2 48371  53.0537 184.8703 0000869  34.9153 325.1893 15.06402398225005
STARLINK-2609           
1 48373U 21038W   25150.12121431  .00000591  00000+0  58592-4 0  9994
2 48373  53.0535 184.6045 0001277  83.7250 276.3885 15.06391516225014
STARLINK-2604           
1 48374U 21038X   25150.41613665  .00001757  00000+0  13682-3 0  9997
2 48374  53.0529 183.6274 0001164  84.0604 276.0518 15.06400519225051
STARLINK-2603           
1 48375U 21038Y   25150.11384820  .00000476  00000+0  50867-4 0  9997
2 48375  53.0533 184.6428 0001202  87.9493 272.1634 15.06404280225011
STARLINK-2610           
1 48376U 21038Z   25150.30918266  .00001862  00000+0  14388-3 0  9993
2 48376  53.0547 183.7624 0001320  77.5450 282.5686 15.06400921225047
STARLINK-2499           
1 48377U 21038AA  25150.35349393  .00001740  00000+0  13564-3 0  9998
2 48377  53.0519 184.0629 0001160  74.2390 285.8727 15.06400510225041
STARLINK-2526           
1 48378U 21038AB  25150.10279570 -.00000818  00000+0 -36048-4 0  9991
2 48378  53.0536 184.6883 0000924  81.4594 278.6500 15.06388133225014
STARLINK-2612           
1 48379U 21038AC  25150.23180097 -.00000081  00000+0  13424-4 0  9995
2 48379  53.0535 184.1094 0000815  86.1222 273.9860 15.06394572225035
STARLINK-2614           
1 48380U 21038AD  25150.10653414  .00004385  00000+0  31311-3 0  9995
2 48380  53.0534 185.1810 0001341  95.8970 264.2172 15.06395438225003
STARLINK-2630           
1 48381U 21038AE  25150.09541368  .00000015  00000+0  19899-4 0  9992
2 48381  53.0539 184.7199 0000946  84.7725 275.3372 15.06398546225018
STARLINK-2585           
1 48382U 21038AF  25150.09173154  .00000586  00000+0  58209-4 0  9998
2 48382  53.0531 184.7355 0000858  88.3798 271.7289 15.06393711225013
STARLINK-2598           
1 48385U 21038AJ  25150.41240658  .00001310  00000+0  10684-3 0  9991
2 48385  53.0540 183.2971 0000976  83.3942 276.7158 15.06399137225053
STARLINK-2606           
1 48386U 21038AK  25150.06823661  .00001748  00000+0  13625-3 0  9997
2 48386  53.0538 179.8518 0001193  85.2911 274.8215 15.06397659225070
STARLINK-2594           
1 48388U 21038AM  25150.22673978  .00001739  00000+0  13560-3 0  9999
2 48388  53.0538 179.1301 0000841  81.8824 278.2260 15.06399188225100
STARLINK-2586           
1 48390U 21038AP  25149.94521437  .00000178  00000+0  30859-4 0  9998
2 48390  53.0535 175.3946 0000968  86.6304 273.4796 15.06393945225127
STARLINK-2607           
1 48391U 21038AQ  25150.33960669  .00000659  00000+0  63101-4 0  9998
2 48391  53.0536 173.6227 0000881  86.0225 274.0865 15.06398406225178
STARLINK-2605           
1 48392U 21038AR  25150.20322830  .00000520  00000+0  53786-4 0  9992
2 48392  53.0533 174.2384 0000994  82.5799 277.5303 15.06396280225161
STARLINK-2574           
1 48395U 21038AU  25150.43920758  .00001344  00000+0  10910-3 0  9999
2 48395  53.0539 173.8052 0001290  84.4349 275.6788 15.06394739225195
STARLINK-2575           
1 48396U 21038AV  25150.52390608  .00002424  00000+0  18166-3 0  9996
2 48396  53.0531 172.7953 0001316  86.0858 274.0282 15.06387199225215
STARLINK-2590           
1 48397U 21038AW  25150.05579957  .00003007  00000+0  22068-3 0  9995
2 48397  53.0519 174.8930 0000198  62.0760 298.0249 15.06389330225143
STARLINK-2588           
1 48398U 21038AX  25150.05210629  .00000885  00000+0  78320-4 0  9998
2 48398  53.0538 174.9158 0000955  80.1395 279.9702 15.06397352225149
STARLINK-2587           
1 48399U 21038AY  25150.44650697 -.00000421  00000+0 -93784-5 0  9995
2 48399  53.0538 173.1441 0001331  71.4588 288.6545 15.06390332225202
STARLINK-2576           
1 48400U 21038AZ  25150.44281674  .00001281  00000+0  10491-3 0  9998
2 48400  53.0537 173.1592 0001161  78.1578 281.9541 15.06397466225202
STARLINK-2571           
1 48401U 21038BA  25150.21428828  .00001022  00000+0  87470-4 0  9993
2 48401  53.0535 174.1957 0000939  82.3781 277.7315 15.06397928225162
STARLINK-2593           
1 48404U 21038BD  25150.23272397  .00000246  00000+0  35396-4 0  9993
2 48404  53.0544 174.1047 0001192  87.7692 272.3433 15.06390754225170
STARLINK-2570           
1 48405U 21038BE  25150.22903832 -.00000934  00000+0 -43874-4 0  9994
2 48405  53.0536 174.1228 0000926  75.7392 284.3700 15.06391382225179
STARLINK-2568           
1 48406U 21038BF  25150.22534579 -.00000209  00000+0  48184-5 0  9997
2 48406  53.0547 174.1395 0000920  91.0642 269.0452 15.06399454225172
STARLINK-2595           
1 48407U 21038BG  25150.25001157  .00180254  00000+0  49000-2 0  9995
2 48407  53.0490 147.2500 0001368  79.4786 134.4764 15.36375619225547
STARLINK-2592           
1 48408U 21038BH  25150.21797087  .00000416  00000+0  46791-4 0  9993
2 48408  53.0549 174.1738 0001249  91.7839 268.3293 15.06398338225161
STARLINK-2563           
1 48410U 21038BK  25149.64895955 -.00002035  00000+0 -11780-3 0  9994
2 48410  53.0553 131.7277 0001539  89.7498 270.3667 15.06395345225136
STARLINK-2505           
1 48411U 21038BL  25150.19679428  .00001681  00000+0  13177-3 0  9998
2 48411  53.0550 124.2669 0001357  85.4743 274.6401 15.06391825225862
STARLINK-2581           
1 48412U 21038BM  25150.34796051  .00000563  00000+0  56703-4 0  9999
2 48412  53.0541 124.0220 0001247  86.5115 273.6016 15.06396137225881
STARLINK-2461           
1 48428U 21040A   25150.35573898  .00000086  00000+0  24669-4 0  9998
2 48428  53.0568  18.5510 0001395  88.0236 272.0913 15.06395617225130
STARLINK-2700           
1 48431U 21040D   25149.90649290 -.00000604  00000+0 -21692-4 0  9992
2 48431  53.0552 345.5674 0001341  80.5561 279.5580 15.06390579224278
STARLINK-2680           
1 48432U 21040E   25150.21940966  .00000144  00000+0  28594-4 0  9998
2 48432  53.0568 339.5588 0001366  86.1594 273.9551 15.06394768224997
